[{"OBJECT_NAME":"HELIOS 1B","OBJECT_ID":"1999-064A","EPOCH":"2026-03-31T10:30:30.163104","MEAN_MOTION":14.87783052,"ECCENTRICITY":0.00017302,"INCLINATION":98.1675,"RA_OF_ASC_NODE":353.3182,"ARG_OF_PERICENTER":47.5616,"MEAN_ANOMALY":312.5745,"EPHEMERIS_TYPE":0,"CLASSIFICATION_TYPE":"U","NORAD_CAT_ID":25977,"ELEMENT_SET_NO":999,"REV_AT_EPOCH":68849,"BSTAR":0.00023419627,"MEAN_MOTION_DOT":2.079e-5,"MEAN_MOTION_DDOT":0},{"OBJECT_NAME":"TERRA","OBJECT_ID":"1999-068A","EPOCH":"2026-03-31T20:11:31.611840","MEAN_MOTION":14.61038645,"ECCENTRICITY":0.000362,"INCLINATION":97.9546,"RA_OF_ASC_NODE":143.4247,"ARG_OF_PERICENTER":105.7304,"MEAN_ANOMALY":342.3696,"EPHEMERIS_TYPE":0,"CLASSIFICATION_TYPE":"U","NORAD_CAT_ID":25994,"ELEMENT_SET_NO":999,"REV_AT_EPOCH":39831,"BSTAR":0.00013196,"MEAN_MOTION_DOT":6.03e-6,"MEAN_MOTION_DDOT":0},{"OBJECT_NAME":"SL-16 R/B","OBJECT_ID":"2000-006B","EPOCH":"2026-03-31T15:09:46.454688","MEAN_MOTION":14.15829241,"ECCENTRICITY":0.0015511,"INCLINATION":71.0029,"RA_OF_ASC_NODE":51.6966,"ARG_OF_PERICENTER":155.4544,"MEAN_ANOMALY":204.732,"EPHEMERIS_TYPE":0,"CLASSIFICATION_TYPE":"U","NORAD_CAT_ID":26070,"ELEMENT_SET_NO":999,"REV_AT_EPOCH":35166,"BSTAR":0.00016402,"MEAN_MOTION_DOT":2.75e-6,"MEAN_MOTION_DDOT":0},{"OBJECT_NAME":"TITAN 4B R/B","OBJECT_ID":"2000-047B","EPOCH":"2026-03-31T21:23:38.737248","MEAN_MOTION":15.09769164,"ECCENTRICITY":0.004,"INCLINATION":67.991,"RA_OF_ASC_NODE":338.0731,"ARG_OF_PERICENTER":9.3342,"MEAN_ANOMALY":350.8541,"EPHEMERIS_TYPE":0,"CLASSIFICATION_TYPE":"U","NORAD_CAT_ID":26474,"ELEMENT_SET_NO":999,"REV_AT_EPOCH":39626,"BSTAR":0.00030073,"MEAN_MOTION_DOT":4.824e-5,"MEAN_MOTION_DDOT":0},{"OBJECT_NAME":"ENVISAT","OBJECT_ID":"2002-009A","EPOCH":"2026-03-31T20:31:35.956128","MEAN_MOTION":14.39044847,"ECCENTRICITY":0.0001218,"INCLINATION":98.3765,"RA_OF_ASC_NODE":43.9299,"ARG_OF_PERICENTER":82.3149,"MEAN_ANOMALY":304.3382,"EPHEMERIS_TYPE":0,"CLASSIFICATION_TYPE":"U","NORAD_CAT_ID":27386,"ELEMENT_SET_NO":999,"REV_AT_EPOCH":26236,"BSTAR":6.8527e-5,"MEAN_MOTION_DOT":1.69e-6,"MEAN_MOTION_DDOT":0},{"OBJECT_NAME":"IDEFIX & ARIANE 42P R/B","OBJECT_ID":"2002-021B","EPOCH":"2026-03-31T14:10:15.409632","MEAN_MOTION":14.31041145,"ECCENTRICITY":0.0012732,"INCLINATION":98.5896,"RA_OF_ASC_NODE":28.9383,"ARG_OF_PERICENTER":119.9144,"MEAN_ANOMALY":240.3305,"EPHEMERIS_TYPE":0,"CLASSIFICATION_TYPE":"U","NORAD_CAT_ID":27422,"ELEMENT_SET_NO":999,"REV_AT_EPOCH":24715,"BSTAR":0.00015081,"MEAN_MOTION_DOT":3.54e-6,"MEAN_MOTION_DDOT":0},{"OBJECT_NAME":"AQUA","OBJECT_ID":"2002-022A","EPOCH":"2026-03-31T20:28:33.767040","MEAN_MOTION":14.62028904,"ECCENTRICITY":0.0001244,"INCLINATION":98.4212,"RA_OF_ASC_NODE":58.6282,"ARG_OF_PERICENTER":116.786,"MEAN_ANOMALY":273.4354,"EPHEMERIS_TYPE":0,"CLASSIFICATION_TYPE":"U","NORAD_CAT_ID":27424,"ELEMENT_SET_NO":999,"REV_AT_EPOCH":27197,"BSTAR":0.00028673,"MEAN_MOTION_DOT":1.389e-5,"MEAN_MOTION_DDOT":0},{"OBJECT_NAME":"CZ-4B R/B","OBJECT_ID":"2002-024C","EPOCH":"2026-03-31T21:07:56.669664","MEAN_MOTION":14.14551586,"ECCENTRICITY":0.0049385,"INCLINATION":98.879,"RA_OF_ASC_NODE":144.1707,"ARG_OF_PERICENTER":320.9294,"MEAN_ANOMALY":212.1639,"EPHEMERIS_TYPE":0,"CLASSIFICATION_TYPE":"U","NORAD_CAT_ID":27432,"ELEMENT_SET_NO":999,"REV_AT_EPOCH":23237,"BSTAR":5.3939e-5,"MEAN_MOTION_DOT":6.0e-7,"MEAN_MOTION_DDOT":0},{"OBJECT_NAME":"MIDORI II (ADEOS-II)","OBJECT_ID":"2002-056A","EPOCH":"2026-03-31T08:45:39.916512","MEAN_MOTION":14.29301765,"ECCENTRICITY":6.068e-5,"INCLINATION":98.7806,"RA_OF_ASC_NODE":48.9976,"ARG_OF_PERICENTER":20.0869,"MEAN_ANOMALY":340.0336,"EPHEMERIS_TYPE":0,"CLASSIFICATION_TYPE":"U","NORAD_CAT_ID":27597,"ELEMENT_SET_NO":999,"REV_AT_EPOCH":21339,"BSTAR":0.00017776772,"MEAN_MOTION_DOT":4.07e-6,"MEAN_MOTION_DDOT":0},{"OBJECT_NAME":"H-2A R/B","OBJECT_ID":"2002-056E","EPOCH":"2026-03-31T21:36:25.968384","MEAN_MOTION":14.33776214,"ECCENTRICITY":0.0071411,"INCLINATION":98.3241,"RA_OF_ASC_NODE":50.4255,"ARG_OF_PERICENTER":95.2984,"MEAN_ANOMALY":330.1625,"EPHEMERIS_TYPE":0,"CLASSIFICATION_TYPE":"U","NORAD_CAT_ID":27601,"ELEMENT_SET_NO":999,"REV_AT_EPOCH":21729,"BSTAR":0.00015751,"MEAN_MOTION_DOT":4.09e-6,"MEAN_MOTION_DDOT":0},{"OBJECT_NAME":"CZ-4B R/B","OBJECT_ID":"2003-049C","EPOCH":"2026-03-31T17:35:27.585888","MEAN_MOTION":14.55040371,"ECCENTRICITY":0.0048454,"INCLINATION":98.6894,"RA_OF_ASC_NODE":86.5059,"ARG_OF_PERICENTER":163.137,"MEAN_ANOMALY":197.145,"EPHEMERIS_TYPE":0,"CLASSIFICATION_TYPE":"U","NORAD_CAT_ID":28059,"ELEMENT_SET_NO":999,"REV_AT_EPOCH":18980,"BSTAR":0.00012422,"MEAN_MOTION_DOT":4.92e-6,"MEAN_MOTION_DDOT":0},{"OBJECT_NAME":"CZ-2C R/B","OBJECT_ID":"2004-012C","EPOCH":"2026-03-31T03:29:59.913312","MEAN_MOTION":15.67204291,"ECCENTRICITY":0.00134436,"INCLINATION":97.7178,"RA_OF_ASC_NODE":157.5086,"ARG_OF_PERICENTER":224.2126,"MEAN_ANOMALY":135.806,"EPHEMERIS_TYPE":0,"CLASSIFICATION_TYPE":"U","NORAD_CAT_ID":28222,"ELEMENT_SET_NO":999,"REV_AT_EPOCH":20763,"BSTAR":0.00073084359,"MEAN_MOTION_DOT":0.00079102,"MEAN_MOTION_DDOT":0},{"OBJECT_NAME":"SL-16 R/B","OBJECT_ID":"2004-021B","EPOCH":"2026-03-31T12:27:53.669088","MEAN_MOTION":14.14596697,"ECCENTRICITY":0.00051324,"INCLINATION":71.001,"RA_OF_ASC_NODE":186.6824,"ARG_OF_PERICENTER":342.754,"MEAN_ANOMALY":17.3407,"EPHEMERIS_TYPE":0,"CLASSIFICATION_TYPE":"U","NORAD_CAT_ID":28353,"ELEMENT_SET_NO":999,"REV_AT_EPOCH":12592,"BSTAR":0.00018689917,"MEAN_MOTION_DOT":3.12e-6,"MEAN_MOTION_DDOT":0},{"OBJECT_NAME":"CZ-4B R/B","OBJECT_ID":"2004-035C","EPOCH":"2026-03-31T13:37:29.370720","MEAN_MOTION":15.29449768,"ECCENTRICITY":0.0030101,"INCLINATION":97.3461,"RA_OF_ASC_NODE":124.5493,"ARG_OF_PERICENTER":249.6075,"MEAN_ANOMALY":110.1932,"EPHEMERIS_TYPE":0,"CLASSIFICATION_TYPE":"U","NORAD_CAT_ID":28415,"ELEMENT_SET_NO":999,"REV_AT_EPOCH":18325,"BSTAR":0.00036106,"MEAN_MOTION_DOT":0.00010377,"MEAN_MOTION_DDOT":0},{"OBJECT_NAME":"CZ-2C R/B","OBJECT_ID":"2004-046B","EPOCH":"2026-03-31T12:03:53.000928","MEAN_MOTION":14.27000301,"ECCENTRICITY":0.0140619,"INCLINATION":98.1978,"RA_OF_ASC_NODE":4.1276,"ARG_OF_PERICENTER":90.3664,"MEAN_ANOMALY":271.3632,"EPHEMERIS_TYPE":0,"CLASSIFICATION_TYPE":"U","NORAD_CAT_ID":28480,"ELEMENT_SET_NO":999,"REV_AT_EPOCH":11161,"BSTAR":9.4841297e-5,"MEAN_MOTION_DOT":2.16e-6,"MEAN_MOTION_DDOT":0},{"OBJECT_NAME":"ARIANE 5 R/B","OBJECT_ID":"2004-049H","EPOCH":"2026-03-31T11:02:00.753216","MEAN_MOTION":14.85306977,"ECCENTRICITY":0.0082885,"INCLINATION":98.2658,"RA_OF_ASC_NODE":259.7367,"ARG_OF_PERICENTER":280.6849,"MEAN_ANOMALY":78.504,"EPHEMERIS_TYPE":0,"CLASSIFICATION_TYPE":"U","NORAD_CAT_ID":28499,"ELEMENT_SET_NO":999,"REV_AT_EPOCH":14902,"BSTAR":0.0001367,"MEAN_MOTION_DOT":1.183e-5,"MEAN_MOTION_DDOT":0},{"OBJECT_NAME":"CZ-2D R/B","OBJECT_ID":"2005-024B","EPOCH":"2026-03-31T18:12:58.983264","MEAN_MOTION":15.62213914,"ECCENTRICITY":0.0001977,"INCLINATION":97.3567,"RA_OF_ASC_NODE":106.7457,"ARG_OF_PERICENTER":314.5126,"MEAN_ANOMALY":45.597,"EPHEMERIS_TYPE":0,"CLASSIFICATION_TYPE":"U","NORAD_CAT_ID":28738,"ELEMENT_SET_NO":999,"REV_AT_EPOCH":14322,"BSTAR":0.00062451,"MEAN_MOTION_DOT":0.00055075,"MEAN_MOTION_DDOT":0}]
